JILIN-1 KUANFU 01       
1 45016U 20003A   26194.84463877  .00001491  00000+0  93411-4 0  9996
2 45016  97.5022 268.2805 0009140 201.8824 158.2017 15.10862798359359
JILIN-1 KUANFU-01B      
1 49003U 21061A   26194.88242602  .00002045  00000+0  13042-3 0  9993
2 49003  97.5210 270.5797 0006188 341.5358  18.5645 15.09805722277375
JILIN-1 KUANFU 01C      
1 52443U 22048A   26194.87412175  .00001474  00000+0  95435-4 0  9996
2 52443  97.5251 271.5613 0017235 224.9744 135.0090 15.09596036231226
JILIN-1 KUANFU 02A      
1 57696U 23127A   26194.82824981  .00002175  00000+0  13472-3 0  9996
2 57696  97.5572 288.3102 0010206 241.9970 118.0228 15.10805149159657
JILIN-01 KUANFU 02B 1   
1 61189U 24169A   26194.84040205  .00001792  00000+0  11716-3 0  9999
2 61189  97.5582 283.9535 0001577 351.9206   8.1997 15.09053796 99843
JILIN-01 KUANFU 02B 2   
1 61190U 24169B   26194.81998669  .00001730  00000+0  11336-3 0  9994
2 61190  97.5570 283.3184 0004859 285.8500  74.2193 15.09013341 99848
JILIN-01 KUANFU 02B 3   
1 61191U 24169C   26194.82896516  .00001708  00000+0  11171-3 0  9996
2 61191  97.5566 283.7601 0012936 210.7709 149.2763 15.09052114 99842
JILIN-01 KUANFU 02B 4   
1 61192U 24169D   26194.86404042  .00002702  00000+0  17443-3 0  9993
2 61192  97.5533 283.3215 0013890 168.3754 191.7798 15.09036858 99850
JILIN-01 KUANFU 02B 5   
1 61193U 24169E   26194.85110023  .00002206  00000+0  14308-3 0  9992
2 61193  97.5584 284.1047 0013091 191.7715 168.3209 15.09071640 99854
JILIN-01 KUANFU 02B 6   
1 61194U 24169F   26194.80838523  .00001931  00000+0  12579-3 0  9992
2 61194  97.5559 283.9558 0015491 226.4209 133.5734 15.09028190 99850
