{"fetched_at":"2026-07-14T06:34:51.094Z","source":"https://celestrak.org/NORAD/elements/gp.php?NAME=JILIN&FORMAT=JSON","constellation":"jilin-1-kuanfu","records":[{"OBJECT_NAME":"JILIN-1 KUANFU 01","OBJECT_ID":"2020-003A","EPOCH":"2026-07-13T20:16:16.789728","CLASSIFICATION_TYPE":"U","MEAN_MOTION":15.10862798,"ECCENTRICITY":0.000914,"INCLINATION":97.5022,"RA_OF_ASC_NODE":268.2805,"ARG_OF_PERICENTER":201.8824,"MEAN_ANOMALY":158.2017,"EPHEMERIS_TYPE":0,"NORAD_CAT_ID":45016,"ELEMENT_SET_NO":999,"REV_AT_EPOCH":35935,"BSTAR":0.000093411,"MEAN_MOTION_DOT":0.00001491,"MEAN_MOTION_DDOT":0},{"OBJECT_NAME":"JILIN-1 KUANFU-01B","OBJECT_ID":"2021-061A","EPOCH":"2026-07-13T21:10:41.608128","CLASSIFICATION_TYPE":"U","MEAN_MOTION":15.09805722,"ECCENTRICITY":0.0006188,"INCLINATION":97.521,"RA_OF_ASC_NODE":270.5797,"ARG_OF_PERICENTER":341.5358,"MEAN_ANOMALY":18.5645,"EPHEMERIS_TYPE":0,"NORAD_CAT_ID":49003,"ELEMENT_SET_NO":999,"REV_AT_EPOCH":27737,"BSTAR":0.00013042,"MEAN_MOTION_DOT":0.00002045,"MEAN_MOTION_DDOT":0},{"OBJECT_NAME":"JILIN-1 KUANFU 01C","OBJECT_ID":"2022-048A","EPOCH":"2026-07-13T20:58:44.119200","CLASSIFICATION_TYPE":"U","MEAN_MOTION":15.09596036,"ECCENTRICITY":0.0017235,"INCLINATION":97.5251,"RA_OF_ASC_NODE":271.5613,"ARG_OF_PERICENTER":224.9744,"MEAN_ANOMALY":135.009,"EPHEMERIS_TYPE":0,"NORAD_CAT_ID":52443,"ELEMENT_SET_NO":999,"REV_AT_EPOCH":23122,"BSTAR":0.000095435,"MEAN_MOTION_DOT":0.00001474,"MEAN_MOTION_DDOT":0},{"OBJECT_NAME":"JILIN-1 KUANFU 02A","OBJECT_ID":"2023-127A","EPOCH":"2026-07-13T19:52:40.783584","CLASSIFICATION_TYPE":"U","MEAN_MOTION":15.10805149,"ECCENTRICITY":0.0010206,"INCLINATION":97.5572,"RA_OF_ASC_NODE":288.3102,"ARG_OF_PERICENTER":241.997,"MEAN_ANOMALY":118.0228,"EPHEMERIS_TYPE":0,"NORAD_CAT_ID":57696,"ELEMENT_SET_NO":999,"REV_AT_EPOCH":15965,"BSTAR":0.00013472,"MEAN_MOTION_DOT":0.00002175,"MEAN_MOTION_DDOT":0},{"OBJECT_NAME":"JILIN-01 KUANFU 02B 1","OBJECT_ID":"2024-169A","EPOCH":"2026-07-13T20:10:10.737120","CLASSIFICATION_TYPE":"U","MEAN_MOTION":15.09053796,"ECCENTRICITY":0.0001577,"INCLINATION":97.5582,"RA_OF_ASC_NODE":283.9535,"ARG_OF_PERICENTER":351.9206,"MEAN_ANOMALY":8.1997,"EPHEMERIS_TYPE":0,"NORAD_CAT_ID":61189,"ELEMENT_SET_NO":999,"REV_AT_EPOCH":9984,"BSTAR":0.00011716,"MEAN_MOTION_DOT":0.00001792,"MEAN_MOTION_DDOT":0},{"OBJECT_NAME":"JILIN-01 KUANFU 02B 2","OBJECT_ID":"2024-169B","EPOCH":"2026-07-13T19:40:46.850016","CLASSIFICATION_TYPE":"U","MEAN_MOTION":15.09013341,"ECCENTRICITY":0.0004859,"INCLINATION":97.557,"RA_OF_ASC_NODE":283.3184,"ARG_OF_PERICENTER":285.85,"MEAN_ANOMALY":74.2193,"EPHEMERIS_TYPE":0,"NORAD_CAT_ID":61190,"ELEMENT_SET_NO":999,"REV_AT_EPOCH":9984,"BSTAR":0.00011336,"MEAN_MOTION_DOT":0.0000173,"MEAN_MOTION_DDOT":0},{"OBJECT_NAME":"JILIN-01 KUANFU 02B 3","OBJECT_ID":"2024-169C","EPOCH":"2026-07-13T19:53:42.589824","CLASSIFICATION_TYPE":"U","MEAN_MOTION":15.09052114,"ECCENTRICITY":0.0012936,"INCLINATION":97.5566,"RA_OF_ASC_NODE":283.7601,"ARG_OF_PERICENTER":210.7709,"MEAN_ANOMALY":149.2763,"EPHEMERIS_TYPE":0,"NORAD_CAT_ID":61191,"ELEMENT_SET_NO":999,"REV_AT_EPOCH":9984,"BSTAR":0.00011171,"MEAN_MOTION_DOT":0.00001708,"MEAN_MOTION_DDOT":0},{"OBJECT_NAME":"JILIN-01 KUANFU 02B 4","OBJECT_ID":"2024-169D","EPOCH":"2026-07-13T20:44:13.092288","CLASSIFICATION_TYPE":"U","MEAN_MOTION":15.09036858,"ECCENTRICITY":0.001389,"INCLINATION":97.5533,"RA_OF_ASC_NODE":283.3215,"ARG_OF_PERICENTER":168.3754,"MEAN_ANOMALY":191.7798,"EPHEMERIS_TYPE":0,"NORAD_CAT_ID":61192,"ELEMENT_SET_NO":999,"REV_AT_EPOCH":9985,"BSTAR":0.00017443,"MEAN_MOTION_DOT":0.00002702,"MEAN_MOTION_DDOT":0},{"OBJECT_NAME":"JILIN-01 KUANFU 02B 5","OBJECT_ID":"2024-169E","EPOCH":"2026-07-13T20:25:35.059872","CLASSIFICATION_TYPE":"U","MEAN_MOTION":15.0907164,"ECCENTRICITY":0.0013091,"INCLINATION":97.5584,"RA_OF_ASC_NODE":284.1047,"ARG_OF_PERICENTER":191.7715,"MEAN_ANOMALY":168.3209,"EPHEMERIS_TYPE":0,"NORAD_CAT_ID":61193,"ELEMENT_SET_NO":999,"REV_AT_EPOCH":9985,"BSTAR":0.00014308,"MEAN_MOTION_DOT":0.00002206,"MEAN_MOTION_DDOT":0},{"OBJECT_NAME":"JILIN-01 KUANFU 02B 6","OBJECT_ID":"2024-169F","EPOCH":"2026-07-13T19:24:04.483872","CLASSIFICATION_TYPE":"U","MEAN_MOTION":15.0902819,"ECCENTRICITY":0.0015491,"INCLINATION":97.5559,"RA_OF_ASC_NODE":283.9558,"ARG_OF_PERICENTER":226.4209,"MEAN_ANOMALY":133.5734,"EPHEMERIS_TYPE":0,"NORAD_CAT_ID":61194,"ELEMENT_SET_NO":999,"REV_AT_EPOCH":9985,"BSTAR":0.00012579,"MEAN_MOTION_DOT":0.00001931,"MEAN_MOTION_DDOT":0}]}
